[{"OBJECT_NAME":"SPAWAR-CAL-O","OBJECT_ID":"2018-099J","EPOCH":"2026-03-09T17:45:15.080832","MEAN_MOTION":15.31356755,"ECCENTRICITY":0.00072392,"INCLINATION":97.4452,"RA_OF_ASC_NODE":132.0993,"ARG_OF_PERICENTER":285.067,"MEAN_ANOMALY":74.977,"EPHEMERIS_TYPE":0,"CLASSIFICATION_TYPE":"U","NORAD_CAT_ID":43766,"ELEMENT_SET_NO":999,"REV_AT_EPOCH":39828,"BSTAR":0.00069663212,"MEAN_MOTION_DOT":0.00021069,"MEAN_MOTION_DDOT":0},{"OBJECT_NAME":"STARLINK-34875","OBJECT_ID":"2025-212P","EPOCH":"2026-03-09T23:15:33.499008","MEAN_MOTION":15.30207624,"ECCENTRICITY":0.00011077,"INCLINATION":53.1611,"RA_OF_ASC_NODE":344.5688,"ARG_OF_PERICENTER":97.3126,"MEAN_ANOMALY":262.8001,"EPHEMERIS_TYPE":0,"CLASSIFICATION_TYPE":"U","NORAD_CAT_ID":65689,"ELEMENT_SET_NO":999,"REV_AT_EPOCH":2728,"BSTAR":0.00099288129,"MEAN_MOTION_DOT":0.00029169,"MEAN_MOTION_DDOT":0}]
